{"type": "FeatureCollection", "features": [ {"type": "Feature", "properties": {"norad_id": 52912, "name": "GAOFEN-12 03", "group": "resource", "lat": 29.40721831265524, "lon": 67.45872687589967, "alt_km": 629.3187914259406, "timestamp": "2025-12-21T20:41:07.643501+00:00", "meta": {"OBJECT_NAME": "GAOFEN-12 03", "OBJECT_ID": "2022-069A", "EPOCH": "2025-12-21T15:08:24.053280", "MEAN_MOTION": 14.79625631, "ECCENTRICITY": 0.00019272, "INCLINATION": 97.8488, "RA_OF_ASC_NODE": 242.7738, "ARG_OF_PERICENTER": 51.552, "MEAN_ANOMALY": 308.5865, "EPHEMERIS_TYPE": 0, "CLASSIFICATION_TYPE": "U", "NORAD_CAT_ID": 52912, "ELEMENT_SET_NO": 999, "REV_AT_EPOCH": 18835, "BSTAR": 2.7815763e-05, "MEAN_MOTION_DOT": 1.58e-06, "MEAN_MOTION_DDOT": 0}, "tle": {"line1": "1 52912U 22069A   25355.63083395  .00000158  00000+0  27816-4 0  9996", "line2": "2 52912  97.8488 242.7738 0001927  51.5520 308.5865 14.79625631188359"}}, "geometry": {"type": "Point", "coordinates": [67.45872687589967, 29.40721831265524]}}, {"type": "Feature", "properties": {"norad_id": 54754, "name": "SWOT", "group": "resource", "lat": 42.707996496414076, "lon": -73.61806890449401, "alt_km": 889.3039944901675, "timestamp": "2025-12-21T20:41:07.643510+00:00", "meta": {"OBJECT_NAME": "SWOT", "OBJECT_ID": "2022-173A", "EPOCH": "2025-12-21T13:36:59.410656", "MEAN_MOTION": 14.00168088, "ECCENTRICITY": 3.571e-05, "INCLINATION": 77.6109, "RA_OF_ASC_NODE": 275.0737, "ARG_OF_PERICENTER": 87.2638, "MEAN_ANOMALY": 272.8555, "EPHEMERIS_TYPE": 0, "CLASSIFICATION_TYPE": "U", "NORAD_CAT_ID": 54754, "ELEMENT_SET_NO": 999, "REV_AT_EPOCH": 15429, "BSTAR": 8.407796e-06, "MEAN_MOTION_DOT": 1e-07, "MEAN_MOTION_DDOT": 0}, "tle": {"line1": "1 54754U 22173A   25355.56735429  .00000010  00000+0  84078-5 0  9993", "line2": "2 54754  77.6109 275.0737 0000357  87.2638 272.8555 14.00168088154298"}}, "geometry": {"type": "Point", "coordinates": [-73.61806890449401, 42.707996496414076]}}, {"type": "Feature", "properties": {"norad_id": 57654, "name": "GAOFEN-12 04", "group": "resource", "lat": -36.81703913665173, "lon": -82.54313738379298, "alt_km": 636.9195855821044, "timestamp": "2025-12-21T20:41:07.643520+00:00", "meta": {"OBJECT_NAME": "GAOFEN-12 04", "OBJECT_ID": "2023-123A", "EPOCH": "2025-12-21T14:21:42.250752", "MEAN_MOTION": 14.79723426, "ECCENTRICITY": 0.00012187, "INCLINATION": 97.9128, "RA_OF_ASC_NODE": 271.2214, "ARG_OF_PERICENTER": 77.5807, "MEAN_ANOMALY": 282.5541, "EPHEMERIS_TYPE": 0, "CLASSIFICATION_TYPE": "U", "NORAD_CAT_ID": 57654, "ELEMENT_SET_NO": 999, "REV_AT_EPOCH": 12636, "BSTAR": 0.00014557249, "MEAN_MOTION_DOT": 1.042e-05, "MEAN_MOTION_DDOT": 0}, "tle": {"line1": "1 57654U 23123A   25355.59840568  .00001042  00000+0  14557-3 0  9994", "line2": "2 57654  97.9128 271.2214 0001218  77.5807 282.5541 14.79723426126360"}}, "geometry": {"type": "Point", "coordinates": [-82.54313738379298, -36.81703913665173]}}, {"type": "Feature", "properties": {"norad_id": 59065, "name": "PARS 1", "group": "resource", "lat": -31.173593271665524, "lon": 142.4395277871659, "alt_km": 456.73827010102195, "timestamp": "2025-12-21T20:41:07.643530+00:00", "meta": {"OBJECT_NAME": "PARS 1", "OBJECT_ID": "2024-039Q", "EPOCH": "2025-12-21T15:05:48.624000", "MEAN_MOTION": 15.4116108, "ECCENTRICITY": 0.00119504, "INCLINATION": 97.4645, "RA_OF_ASC_NODE": 326.7513, "ARG_OF_PERICENTER": 45.1927, "MEAN_ANOMALY": 315.0289, "EPHEMERIS_TYPE": 0, "CLASSIFICATION_TYPE": "U", "NORAD_CAT_ID": 59065, "ELEMENT_SET_NO": 999, "REV_AT_EPOCH": 10125, "BSTAR": 0.00024307899, "MEAN_MOTION_DOT": 0.00010015, "MEAN_MOTION_DDOT": 0}, "tle": {"line1": "1 59065U 24039Q   25355.62903500  .00010015  00000+0  24308-3 0  9994", "line2": "2 59065  97.4645 326.7513 0011950  45.1927 315.0289 15.41161080101257"}}, "geometry": {"type": "Point", "coordinates": [142.4395277871659, -31.173593271665524]}}, {"type": "Feature", "properties": {"norad_id": 59371, "name": "RESURS-P 4", "group": "resource", "lat": 58.77213862024091, "lon": -70.1259080741438, "alt_km": 463.10948710274624, "timestamp": "2025-12-21T20:41:07.643539+00:00", "meta": {"OBJECT_NAME": "RESURS-P 4", "OBJECT_ID": "2024-061A", "EPOCH": "2025-12-21T14:09:24.360192", "MEAN_MOTION": 15.32150312, "ECCENTRICITY": 9.51e-05, "INCLINATION": 97.256, "RA_OF_ASC_NODE": 301.7388, "ARG_OF_PERICENTER": 65.8076, "MEAN_ANOMALY": 294.3266, "EPHEMERIS_TYPE": 0, "CLASSIFICATION_TYPE": "U", "NORAD_CAT_ID": 59371, "ELEMENT_SET_NO": 999, "REV_AT_EPOCH": 9656, "BSTAR": 0.0001093443, "MEAN_MOTION_DOT": 3.318e-05, "MEAN_MOTION_DDOT": 0}, "tle": {"line1": "1 59371U 24061A   25355.58986528  .00003318  00000+0  10934-3 0  9993", "line2": "2 59371  97.2560 301.7388 0000951  65.8076 294.3266 15.32150312 96564"}}, "geometry": {"type": "Point", "coordinates": [-70.1259080741438, 58.77213862024091]}}, {"type": "Feature", "properties": {"norad_id": 59625, "name": "LEGION 1", "group": "resource", "lat": 46.018659808343806, "lon": -101.70930426926851, "alt_km": 514.2810656647862, "timestamp": "2025-12-21T20:41:07.643548+00:00", "meta": {"OBJECT_NAME": "LEGION 1", "OBJECT_ID": "2024-081A", "EPOCH": "2025-12-21T13:45:53.436960", "MEAN_MOTION": 15.16558272, "ECCENTRICITY": 0.00036303, "INCLINATION": 97.5205, "RA_OF_ASC_NODE": 70.1368, "ARG_OF_PERICENTER": 276.9699, "MEAN_ANOMALY": 83.1121, "EPHEMERIS_TYPE": 0, "CLASSIFICATION_TYPE": "U", "NORAD_CAT_ID": 59625, "ELEMENT_SET_NO": 999, "REV_AT_EPOCH": 9061, "BSTAR": 0.00020578853, "MEAN_MOTION_DOT": 3.948e-05, "MEAN_MOTION_DDOT": 0}, "tle": {"line1": "1 59625U 24081A   25355.57353515  .00003948  00000+0  20579-3 0  9995", "line2": "2 59625  97.5205  70.1368 0003630 276.9699  83.1121 15.16558272 90616"}}, "geometry": {"type": "Point", "coordinates": [-101.70930426926851, 46.018659808343806]}}, {"type": "Feature", "properties": {"norad_id": 59626, "name": "LEGION 2", "group": "resource", "lat": -45.92483515238672, "lon": 78.35320440218084, "alt_km": 521.0246968701576, "timestamp": "2025-12-21T20:41:07.643557+00:00", "meta": {"OBJECT_NAME": "LEGION 2", "OBJECT_ID": "2024-081B", "EPOCH": "2025-12-21T11:23:19.389408", "MEAN_MOTION": 15.16571592, "ECCENTRICITY": 0.00056557, "INCLINATION": 97.5209, "RA_OF_ASC_NODE": 70.1266, "ARG_OF_PERICENTER": 255.6629, "MEAN_ANOMALY": 104.3976, "EPHEMERIS_TYPE": 0, "CLASSIFICATION_TYPE": "U", "NORAD_CAT_ID": 59626, "ELEMENT_SET_NO": 999, "REV_AT_EPOCH": 9060, "BSTAR": 0.00019771176, "MEAN_MOTION_DOT": 3.793e-05, "MEAN_MOTION_DDOT": 0}, "tle": {"line1": "1 59626U 24081B   25355.47452997  .00003793  00000+0  19771-3 0  9999", "line2": "2 59626  97.5209  70.1266 0005655 255.6629 104.3976 15.16571592 90607"}}, "geometry": {"type": "Point", "coordinates": [78.35320440218084, -45.92483515238672]}}, {"type": "Feature", "properties": {"norad_id": 60182, "name": "ALOS-4 (DAICHI-4)", "group": "resource", "lat": -15.586158168734968, "lon": -91.64731906096742, "alt_km": 635.9014479720472, "timestamp": "2025-12-21T20:41:07.643566+00:00", "meta": {"OBJECT_NAME": "ALOS-4 (DAICHI-4)", "OBJECT_ID": "2024-123A", "EPOCH": "2025-12-20T19:27:23.067360", "MEAN_MOTION": 14.79476697, "ECCENTRICITY": 0.00013881, "INCLINATION": 97.9224, "RA_OF_ASC_NODE": 89.5428, "ARG_OF_PERICENTER": 101.339, "MEAN_ANOMALY": 258.7977, "EPHEMERIS_TYPE": 0, "CLASSIFICATION_TYPE": "U", "NORAD_CAT_ID": 60182, "ELEMENT_SET_NO": 999, "REV_AT_EPOCH": 7950, "BSTAR": 0.00018374076, "MEAN_MOTION_DOT": 1.321e-05, "MEAN_MOTION_DDOT": 0}, "tle": {"line1": "1 60182U 24123A   25354.81068365  .00001321  00000+0  18374-3 0  9997", "line2": "2 60182  97.9224  89.5428 0001388 101.3390 258.7977 14.79476697 79501"}}, "geometry": {"type": "Point", "coordinates": [-91.64731906096742, -15.586158168734968]}}, {"type": "Feature", "properties": {"norad_id": 60452, "name": "LEGION 3", "group": "resource", "lat": 38.387814844137026, "lon": -46.3291587504511, "alt_km": 523.2821912576192, "timestamp": "2025-12-21T20:41:07.643575+00:00", "meta": {"OBJECT_NAME": "LEGION 3", "OBJECT_ID": "2024-146A", "EPOCH": "2025-12-21T14:05:18.632544", "MEAN_MOTION": 15.15845382, "ECCENTRICITY": 0.00156838, "INCLINATION": 45.0015, "RA_OF_ASC_NODE": 262.7018, "ARG_OF_PERICENTER": 246.2198, "MEAN_ANOMALY": 113.7036, "EPHEMERIS_TYPE": 0, "CLASSIFICATION_TYPE": "U", "NORAD_CAT_ID": 60452, "ELEMENT_SET_NO": 999, "REV_AT_EPOCH": 7507, "BSTAR": 0.00019851461, "MEAN_MOTION_DOT": 3.606e-05, "MEAN_MOTION_DDOT": 0}, "tle": {"line1": "1 60452U 24146A   25355.58702121  .00003606  00000+0  19851-3 0  9991", "line2": "2 60452  45.0015 262.7018 0015683 246.2198 113.7036 15.15845382 75077"}}, "geometry": {"type": "Point", "coordinates": [-46.3291587504511, 38.387814844137026]}}, {"type": "Feature", "properties": {"norad_id": 60453, "name": "LEGION 4", "group": "resource", "lat": 37.89635566640917, "lon": 44.06847988406636, "alt_km": 509.42206737228935, "timestamp": "2025-12-21T20:41:07.643586+00:00", "meta": {"OBJECT_NAME": "LEGION 4", "OBJECT_ID": "2024-146B", "EPOCH": "2025-12-21T10:55:54.688512", "MEAN_MOTION": 15.15907588, "ECCENTRICITY": 0.00085928, "INCLINATION": 45.0392, "RA_OF_ASC_NODE": 355.1829, "ARG_OF_PERICENTER": 358.3798, "MEAN_ANOMALY": 1.7052, "EPHEMERIS_TYPE": 0, "CLASSIFICATION_TYPE": "U", "NORAD_CAT_ID": 60453, "ELEMENT_SET_NO": 999, "REV_AT_EPOCH": 7390, "BSTAR": 0.0002295529, "MEAN_MOTION_DOT": 4.212e-05, "MEAN_MOTION_DDOT": 0}, "tle": {"line1": "1 60453U 24146B   25355.45549408  .00004212  00000+0  22955-3 0  9998", "line2": "2 60453  45.0392 355.1829 0008592 358.3798   1.7052 15.15907588 73906"}}, "geometry": {"type": "Point", "coordinates": [44.06847988406636, 37.89635566640917]}}]}